{"type":"FeatureCollection","crs":{"type":"name","properties":{"name":"EPSG:4326"}},"features":[{"type":"Feature","id":1,"geometry":{"type":"Polygon","coordinates":[[[-82.916249,42.421349],[-82.916179,42.42133],[-82.916032,42.421272],[-82.91523,42.420947],[-82.91474,42.420745],[-82.914486,42.420648],[-82.914379,42.420642],[-82.914315,42.420637],[-82.914266,42.420629],[-82.914202,42.420613],[-82.913516,42.420329],[-82.913471,42.420308],[-82.913444,42.420292],[-82.913408,42.42026],[-82.913372,42.420219],[-82.913309,42.420157],[-82.913191,42.420089],[-82.910456,42.419022],[-82.910344,42.419015],[-82.910407,42.41838],[-82.910455,42.41789],[-82.910467,42.417801],[-82.910554,42.41719],[-82.910571,42.417118],[-82.910611,42.41695],[-82.910694,42.416594],[-82.910866,42.416021],[-82.911112,42.415422],[-82.911233,42.415148],[-82.911421,42.414724],[-82.911664,42.414192],[-82.912034,42.413409],[-82.912312,42.412768],[-82.912477,42.412391],[-82.912584,42.412148],[-82.912808,42.411635],[-82.91289,42.41146],[-82.913092,42.41103],[-82.913218,42.41076],[-82.913608,42.409928],[-82.913818,42.409481],[-82.914363,42.408317],[-82.914856,42.407266],[-82.91555,42.405799],[-82.915847,42.405171],[-82.916217,42.404471],[-82.916784,42.403398],[-82.917056,42.402849],[-82.917165,42.402628],[-82.917637,42.401638],[-82.918236,42.400384],[-82.918629,42.399558],[-82.919039,42.398927],[-82.919261,42.398584],[-82.919675,42.397997],[-82.919998,42.39754],[-82.92005,42.397467],[-82.92027,42.397155],[-82.920982,42.396146],[-82.921296,42.395701],[-82.92149,42.39546],[-82.921597,42.395345],[-82.921638,42.3953],[-82.921787,42.395173],[-82.922102,42.394955],[-82.92232,42.39483],[-82.923386,42.394433],[-82.924363,42.394055],[-82.924541,42.393983],[-82.925274,42.393697],[-82.925613,42.393565],[-82.926403,42.393257],[-82.926592,42.393183],[-82.927182,42.392952],[-82.927715,42.392734],[-82.928343,42.392476],[-82.928761,42.392304],[-82.928976,42.392215],[-82.929178,42.392132],[-82.930246,42.39169],[-82.931368,42.391244],[-82.931852,42.391062],[-82.932361,42.39087],[-82.933352,42.390502],[-82.934321,42.390159],[-82.934555,42.39008],[-82.935291,42.389828],[-82.935424,42.389783],[-82.936021,42.389596],[-82.936273,42.389523],[-82.937126,42.389289],[-82.937268,42.389255],[-82.937564,42.389183],[-82.938264,42.389017],[-82.93914,42.388816],[-82.939337,42.388771],[-82.939524,42.388729],[-82.940492,42.388543],[-82.94081,42.38848],[-82.941582,42.388344],[-82.942131,42.388248],[-82.942511,42.388184],[-82.942664,42.388155],[-82.943274,42.388047],[-82.94396,42.387925],[-82.944394,42.387848],[-82.945523,42.387648],[-82.946391,42.387496],[-82.946565,42.38747],[-82.946655,42.387043],[-82.946797,42.386991],[-82.946072,42.385985],[-82.94598,42.385861],[-82.945646,42.385345],[-82.94572,42.385317],[-82.945326,42.384749],[-82.943821,42.382426],[-82.942922,42.381039],[-82.942758,42.381095],[-82.94249,42.380676],[-82.942334,42.380458],[-82.942493,42.380396],[-82.941206,42.378475],[-82.939859,42.376405],[-82.939602,42.375989],[-82.939571,42.375996],[-82.939511,42.376004],[-82.939449,42.376008],[-82.939397,42.376006],[-82.939347,42.375993],[-82.939303,42.375969],[-82.939275,42.375938],[-82.938827,42.375133],[-82.938683,42.374742],[-82.937297,42.372702],[-82.934893,42.369067],[-82.933439,42.366837],[-82.932303,42.365117],[-82.93046,42.362417],[-82.930275,42.362141],[-82.930868,42.361903],[-82.930618,42.361526],[-82.930214,42.360914],[-82.929931,42.360492],[-82.929906,42.360446],[-82.929889,42.360399],[-82.929883,42.360366],[-82.928354,42.358092],[-82.928587,42.358005],[-82.927162,42.356455],[-82.924095,42.352298],[-82.923968,42.352124],[-82.924462,42.352019],[-82.926209,42.351647],[-82.93162,42.350488],[-82.941493,42.348256],[-82.945406,42.347397],[-82.948016,42.346011],[-82.959767,42.33977],[-82.989118,42.332482],[-83.008029,42.3316],[-83.013996,42.331321],[-83.018945,42.330617],[-83.023927,42.329428],[-83.026327,42.328869],[-83.039074,42.324772],[-83.039629,42.324508],[-83.040501,42.324094],[-83.049731,42.32146],[-83.060232,42.317965],[-83.06025,42.317959],[-83.063558,42.316858],[-83.073449,42.31089],[-83.076193,42.309524],[-83.078107,42.308574],[-83.079941,42.307172],[-83.090655,42.296281],[-83.097624,42.289676],[-83.099898,42.286699],[-83.103202,42.287942],[-83.107819,42.288965],[-83.109238,42.289232],[-83.109291,42.289238],[-83.111064,42.289475],[-83.111995,42.289588],[-83.113577,42.289999],[-83.114626,42.290178],[-83.115767,42.290231],[-83.116545,42.290187],[-83.117297,42.290022],[-83.117912,42.28979],[-83.118128,42.289728],[-83.119248,42.289057],[-83.119457,42.288755],[-83.119612,42.288386],[-83.119779,42.288015],[-83.119875,42.287555],[-83.119732,42.286456],[-83.119425,42.285605],[-83.119304,42.285117],[-83.119265,42.284763],[-83.119288,42.284402],[-83.11899,42.283284],[-83.118858,42.282976],[-83.11776,42.281164],[-83.117639,42.280413],[-83.117624,42.280026],[-83.117645,42.279813],[-83.117665,42.279624],[-83.117772,42.279462],[-83.117979,42.279303],[-83.118294,42.279188],[-83.118773,42.279134],[-83.119358,42.279174],[-83.121892,42.279436],[-83.128711,42.280792],[-83.130201,42.281101],[-83.131491,42.281409],[-83.132777,42.281805],[-83.134211,42.282227],[-83.135622,42.282753],[-83.135708,42.282596],[-83.135769,42.282612],[-83.135788,42.282579],[-83.135844,42.282534],[-83.135879,42.282521],[-83.135899,42.282493],[-83.135937,42.282468],[-83.135989,42.282439],[-83.136121,42.282399],[-83.136283,42.282391],[-83.136493,42.28242],[-83.136792,42.282532],[-83.137076,42.282643],[-83.137451,42.282792],[-83.137902,42.282289],[-83.138795,42.281242],[-83.140289,42.279467],[-83.140614,42.27909],[-83.140742,42.278929],[-83.142137,42.277315],[-83.143455,42.275736],[-83.144575,42.274429],[-83.146274,42.272435],[-83.147961,42.270438],[-83.14966,42.268435],[-83.151346,42.266438],[-83.152954,42.264402],[-83.15483,42.262151],[-83.155967,42.260798],[-83.156604,42.260053],[-83.158855,42.257368],[-83.16078,42.255192],[-83.160973,42.254961],[-83.161048,42.255016],[-83.16119,42.255131],[-83.16129,42.255218],[-83.161416,42.255337],[-83.161531,42.255457],[-83.161641,42.255582],[-83.162034,42.256086],[-83.162657,42.256892],[-83.162755,42.257011],[-83.162982,42.257246],[-83.163189,42.257429],[-83.163415,42.2576],[-83.16368,42.257776],[-83.164398,42.258228],[-83.164737,42.25844],[-83.165216,42.258752],[-83.165359,42.258855],[-83.165521,42.258971],[-83.16569,42.259097],[-83.165953,42.25931],[-83.166205,42.259531],[-83.166321,42.259639],[-83.166353,42.259675],[-83.166462,42.259817],[-83.166521,42.25991],[-83.166565,42.259991],[-83.166638,42.26017],[-83.166681,42.260339],[-83.1667,42.26051],[-83.166696,42.260694],[-83.166701,42.260804],[-83.166699,42.261077],[-83.166714,42.261287],[-83.166756,42.261567],[-83.166821,42.261835],[-83.166844,42.261878],[-83.166926,42.261975],[-83.167185,42.262281],[-83.167717,42.263265],[-83.167951,42.263697],[-83.168031,42.263817],[-83.168109,42.263913],[-83.168182,42.263988],[-83.168261,42.264059],[-83.168347,42.264125],[-83.16844,42.264187],[-83.168539,42.264244],[-83.168646,42.264296],[-83.16876,42.264344],[-83.168873,42.264383],[-83.168997,42.264419],[-83.169155,42.264454],[-83.169301,42.264477],[-83.169828,42.264577],[-83.169698,42.264758],[-83.169613,42.264834],[-83.168584,42.265975],[-83.168079,42.266597],[-83.167273,42.26759],[-83.162056,42.273719],[-83.161084,42.274975],[-83.158161,42.278845],[-83.158356,42.279011],[-83.15861,42.279232],[-83.158945,42.279531],[-83.159652,42.280162],[-83.160658,42.281149],[-83.160738,42.281224],[-83.160779,42.281267],[-83.160782,42.281272],[-83.160806,42.281295],[-83.160858,42.281338],[-83.161393,42.281858],[-83.16172,42.282234],[-83.161798,42.282332],[-83.161943,42.282534],[-83.162105,42.282792],[-83.162219,42.283005],[-83.162372,42.283338],[-83.162868,42.284453],[-83.162983,42.284686],[-83.163101,42.284924],[-83.163263,42.285215],[-83.163291,42.285264],[-83.163728,42.286056],[-83.163829,42.28624],[-83.164086,42.28668],[-83.164146,42.286758],[-83.164233,42.286841],[-83.164484,42.287081],[-83.164758,42.28734],[-83.164891,42.287442],[-83.164902,42.287452],[-83.165179,42.287704],[-83.165644,42.288084],[-83.166357,42.288699],[-83.166465,42.288799],[-83.166577,42.288906],[-83.166686,42.289029],[-83.166773,42.289148],[-83.166943,42.28946],[-83.166976,42.289523],[-83.166995,42.289572],[-83.166017,42.289818],[-83.165194,42.290056],[-83.164615,42.290312],[-83.164181,42.290581],[-83.162958,42.291257],[-83.162586,42.291426],[-83.162159,42.291591],[-83.161665,42.291782],[-83.161322,42.291842],[-83.161178,42.291857],[-83.160879,42.291888],[-83.16039,42.291916],[-83.159048,42.291942],[-83.158586,42.291951],[-83.15825,42.292017],[-83.158019,42.292155],[-83.157857,42.292318],[-83.157767,42.29243],[-83.157729,42.292584],[-83.157722,42.292674],[-83.157711,42.292802],[-83.157708,42.293038],[-83.157754,42.293228],[-83.157816,42.293375],[-83.157844,42.293443],[-83.157946,42.293595],[-83.158055,42.293747],[-83.158148,42.293905],[-83.158177,42.294124],[-83.158168,42.294319],[-83.158096,42.294552],[-83.15793,42.294784],[-83.157691,42.294957],[-83.157396,42.295107],[-83.157244,42.295174],[-83.157082,42.295228],[-83.156883,42.295263],[-83.156809,42.295272],[-83.156419,42.295337],[-83.156,42.295367],[-83.155534,42.295469],[-83.155279,42.295536],[-83.154728,42.295576],[-83.154399,42.295548],[-83.154041,42.295554],[-83.153547,42.29566],[-83.151687,42.296261],[-83.151402,42.296273],[-83.151,42.296233],[-83.150754,42.296206],[-83.150462,42.296115],[-83.150256,42.296005],[-83.149989,42.295826],[-83.149683,42.295567],[-83.149599,42.295413],[-83.149605,42.295229],[-83.149532,42.295011],[-83.149477,42.294862],[-83.14947,42.294713],[-83.149486,42.294519],[-83.149413,42.294302],[-83.149341,42.29408],[-83.149201,42.293805],[-83.149063,42.293663],[-83.148937,42.293409],[-83.14874,42.293195],[-83.148599,42.293114],[-83.148431,42.292875],[-83.148024,42.292703],[-83.147908,42.292611],[-83.147762,42.29256],[-83.14758,42.29254],[-83.147389,42.29254],[-83.147239,42.29257],[-83.147025,42.292651],[-83.146873,42.292794],[-83.146628,42.292823],[-83.146292,42.29288],[-83.146142,42.292985],[-83.145259,42.293229],[-83.144394,42.293585],[-83.143919,42.293793],[-83.143941,42.293929],[-83.143961,42.294092],[-83.143928,42.294196],[-83.143839,42.294304],[-83.143694,42.294384],[-83.14358,42.294412],[-83.143382,42.294433],[-83.143246,42.294421],[-83.143093,42.294402],[-83.142558,42.294407],[-83.142239,42.294704],[-83.141769,42.295191],[-83.141607,42.29535],[-83.141484,42.295458],[-83.141197,42.296007],[-83.140851,42.296511],[-83.140621,42.297037],[-83.140449,42.297749],[-83.140324,42.299055],[-83.140446,42.299544],[-83.14069,42.300341],[-83.14134,42.301644],[-83.141573,42.302172],[-83.14185,42.303686],[-83.141874,42.304074],[-83.14216,42.304714],[-83.142359,42.305252],[-83.142415,42.305503],[-83.14242,42.305686],[-83.142399,42.305848],[-83.142315,42.305987],[-83.142154,42.306098],[-83.141277,42.306458],[-83.141101,42.30647],[-83.140887,42.306517],[-83.140728,42.306591],[-83.140604,42.306677],[-83.140505,42.306847],[-83.140603,42.307169],[-83.140675,42.307438],[-83.140644,42.307662],[-83.140527,42.30789],[-83.140344,42.308042],[-83.139962,42.30821],[-83.139795,42.308321],[-83.139696,42.308492],[-83.139638,42.308663],[-83.139658,42.308841],[-83.139728,42.309006],[-83.140405,42.310085],[-83.140455,42.310233],[-83.140476,42.310386],[-83.140509,42.31058],[-83.140603,42.310797],[-83.140608,42.310809],[-83.140701,42.311009],[-83.141688,42.312402],[-83.144141,42.315744],[-83.145955,42.318229],[-83.146241,42.31862],[-83.146502,42.319008],[-83.146834,42.319465],[-83.146888,42.319539],[-83.146924,42.319592],[-83.147056,42.319754],[-83.149373,42.322896],[-83.152863,42.327737],[-83.15313,42.328088],[-83.154926,42.327655],[-83.156472,42.32724],[-83.156479,42.327669],[-83.156515,42.327799],[-83.156552,42.327953],[-83.156567,42.328164],[-83.156595,42.328561],[-83.156601,42.328732],[-83.156608,42.32891],[-83.156637,42.329523],[-83.156658,42.329925],[-83.156775,42.333943],[-83.156902,42.336961],[-83.156407,42.33695],[-83.155743,42.336984],[-83.154344,42.337231],[-83.1536,42.337377],[-83.152959,42.337587],[-83.1526,42.337769],[-83.152229,42.337942],[-83.151808,42.338183],[-83.151458,42.338426],[-83.151106,42.338686],[-83.150817,42.338861],[-83.150215,42.339497],[-83.149942,42.339838],[-83.149676,42.340274],[-83.149431,42.340754],[-83.148716,42.343844],[-83.148476,42.344401],[-83.148352,42.344689],[-83.148301,42.344982],[-83.147877,42.347404],[-83.147634,42.349142],[-83.147584,42.349369],[-83.147466,42.349919],[-83.147513,42.350754],[-83.147527,42.350844],[-83.147575,42.351195],[-83.147588,42.351276],[-83.147596,42.351446],[-83.147605,42.351561],[-83.147613,42.351619],[-83.147657,42.351916],[-83.148539,42.351899],[-83.149544,42.351878],[-83.150551,42.351857],[-83.151556,42.351837],[-83.152555,42.351817],[-83.153908,42.351788],[-83.155084,42.351764],[-83.15626,42.351741],[-83.157446,42.351716],[-83.158,42.351705],[-83.158585,42.351692],[-83.159694,42.351667],[-83.16085,42.351643],[-83.16201,42.351618],[-83.163837,42.351577],[-83.164946,42.351554],[-83.166043,42.351529],[-83.166216,42.351525],[-83.167314,42.3515],[-83.168424,42.351476],[-83.169621,42.351446],[-83.16992,42.351441],[-83.171289,42.351412],[-83.172522,42.351385],[-83.173679,42.35136],[-83.174837,42.351334],[-83.175944,42.35131],[-83.176529,42.351298],[-83.177105,42.351285],[-83.17771,42.351272],[-83.178301,42.351259],[-83.179513,42.351233],[-83.181855,42.351182],[-83.181993,42.351179],[-83.1844,42.351129],[-83.185604,42.351104],[-83.186688,42.351086],[-83.186832,42.35108],[-83.187422,42.351066],[-83.188024,42.351054],[-83.189177,42.351033],[-83.190204,42.351012],[-83.191208,42.350993],[-83.192252,42.350973],[-83.193312,42.350953],[-83.194372,42.350932],[-83.195429,42.350913],[-83.195939,42.350903],[-83.19653,42.350891],[-83.196507,42.350471],[-83.196468,42.349654],[-83.196465,42.349596],[-83.196409,42.348422],[-83.196353,42.347277],[-83.196294,42.34605],[-83.196263,42.345457],[-83.196236,42.344881],[-83.196245,42.344619],[-83.19622,42.344099],[-83.19621,42.34389],[-83.196209,42.343666],[-83.196207,42.343489],[-83.196196,42.343227],[-83.196144,42.341952],[-83.196063,42.340052],[-83.196045,42.339683],[-83.196133,42.339435],[-83.196135,42.338365],[-83.196128,42.338201],[-83.196056,42.336435],[-83.197094,42.336427],[-83.197701,42.336422],[-83.198207,42.336414],[-83.198314,42.336408],[-83.198453,42.336401],[-83.198927,42.336398],[-83.199546,42.33639],[-83.200787,42.336369],[-83.202031,42.336354],[-83.202653,42.336344],[-83.203271,42.33633],[-83.203883,42.336324],[-83.204501,42.33632],[-83.205806,42.336318],[-83.206988,42.336307],[-83.207599,42.336298],[-83.208208,42.336289],[-83.209428,42.336269],[-83.210039,42.336258],[-83.21065,42.336245],[-83.211914,42.336212],[-83.212515,42.336195],[-83.212733,42.336175],[-83.212957,42.336127],[-83.213125,42.336064],[-83.213169,42.336047],[-83.213579,42.335785],[-83.213694,42.335849],[-83.213788,42.335896],[-83.213946,42.335961],[-83.21412,42.336021],[-83.214368,42.336079],[-83.214609,42.336117],[-83.214805,42.336134],[-83.215003,42.33614],[-83.215336,42.336136],[-83.215327,42.33473],[-83.215314,42.333585],[-83.215311,42.333348],[-83.215279,42.333062],[-83.215198,42.332213],[-83.215197,42.331995],[-83.215212,42.3317],[-83.215316,42.330333],[-83.215302,42.32977],[-83.215283,42.329106],[-83.215279,42.32902],[-83.215508,42.329015],[-83.215691,42.329011],[-83.215921,42.329006],[-83.220299,42.328912],[-83.221414,42.328887],[-83.222597,42.328861],[-83.22379,42.328835],[-83.224779,42.328814],[-83.225114,42.328802],[-83.225143,42.328806],[-83.225246,42.328941],[-83.225527,42.32937],[-83.226371,42.330578],[-83.227628,42.332378],[-83.22783,42.3326],[-83.228858,42.332222],[-83.230007,42.331791],[-83.231187,42.331324],[-83.232372,42.330858],[-83.234575,42.329844],[-83.234697,42.330882],[-83.234858,42.331991],[-83.234872,42.332267],[-83.234893,42.332727],[-83.234921,42.333043],[-83.234967,42.334271],[-83.235026,42.335835],[-83.235448,42.335808],[-83.23626,42.335787],[-83.237241,42.335743],[-83.237489,42.335737],[-83.237628,42.339449],[-83.237751,42.34265],[-83.237767,42.343087],[-83.238931,42.343067],[-83.239936,42.343048],[-83.240107,42.343045],[-83.241276,42.343023],[-83.242426,42.343006],[-83.242855,42.342994],[-83.242997,42.342989],[-83.243132,42.342984],[-83.243196,42.342981],[-83.243641,42.34295],[-83.244201,42.342898],[-83.244423,42.342881],[-83.248603,42.342418],[-83.248788,42.342398],[-83.248947,42.342381],[-83.251873,42.342058],[-83.252088,42.342034],[-83.252333,42.342009],[-83.252802,42.341963],[-83.253544,42.341894],[-83.25376,42.341874],[-83.254631,42.341838],[-83.254778,42.341833],[-83.255039,42.341825],[-83.255277,42.341818],[-83.255998,42.341798],[-83.257209,42.341764],[-83.257505,42.341757],[-83.258435,42.341733],[-83.259691,42.341706],[-83.260738,42.341698],[-83.260907,42.341701],[-83.262159,42.34173],[-83.262387,42.341734],[-83.263107,42.341715],[-83.263248,42.341712],[-83.263842,42.341693],[-83.263861,42.341938],[-83.263854,42.342096],[-83.26395,42.342336],[-83.264028,42.342586],[-83.264171,42.342796],[-83.264274,42.34309],[-83.264266,42.343429],[-83.264263,42.343573],[-83.264337,42.344377],[-83.264533,42.346301],[-83.264785,42.348931],[-83.265065,42.35173],[-83.265255,42.35354],[-83.265414,42.355071],[-83.265576,42.357056],[-83.265908,42.357047],[-83.265968,42.358894],[-83.265979,42.362274],[-83.266094,42.363074],[-83.266111,42.363651],[-83.26613,42.364259],[-83.266229,42.366722],[-83.266315,42.369093],[-83.266388,42.371488],[-83.266399,42.371735],[-83.266515,42.374451],[-83.26658,42.378605],[-83.266582,42.378739],[-83.266583,42.378786],[-83.268377,42.378745],[-83.274913,42.378595],[-83.274942,42.379918],[-83.274976,42.380929],[-83.275055,42.383379],[-83.275106,42.38487],[-83.275109,42.384895],[-83.275123,42.385265],[-83.275129,42.385469],[-83.275151,42.385838],[-83.275222,42.388699],[-83.275282,42.390191],[-83.275353,42.391986],[-83.275372,42.392459],[-83.275479,42.395191],[-83.275594,42.398169],[-83.275645,42.400097],[-83.275708,42.401777],[-83.275732,42.403709],[-83.275799,42.405408],[-83.275861,42.407282],[-83.276602,42.407279],[-83.277052,42.407279],[-83.277953,42.407266],[-83.278619,42.407252],[-83.279293,42.407232],[-83.279933,42.407211],[-83.280622,42.407197],[-83.281338,42.407182],[-83.281492,42.407176],[-83.281873,42.407161],[-83.28195,42.407158],[-83.28216,42.407152],[-83.282766,42.407128],[-83.282818,42.407126],[-83.283413,42.407104],[-83.284842,42.407048],[-83.286384,42.407001],[-83.286438,42.40932],[-83.286436,42.409426],[-83.286525,42.411755],[-83.286618,42.414252],[-83.286637,42.414672],[-83.286639,42.414721],[-83.286732,42.416628],[-83.286848,42.419092],[-83.286963,42.42144],[-83.287039,42.423249],[-83.287117,42.425057],[-83.287147,42.4257],[-83.287192,42.426883],[-83.287249,42.428221],[-83.287261,42.428554],[-83.287263,42.42861],[-83.287277,42.429121],[-83.287277,42.429123],[-83.287368,42.43224],[-83.287448,42.434882],[-83.287472,42.435883],[-83.287531,42.4376],[-83.287535,42.437723],[-83.287585,42.439314],[-83.287592,42.4395],[-83.287637,42.442104],[-83.287692,42.442524],[-83.287716,42.442614],[-83.287726,42.442685],[-83.285098,42.442735],[-83.281323,42.442806],[-83.278437,42.442866],[-83.278185,42.442869],[-83.269866,42.443121],[-83.268392,42.443158],[-83.2652,42.443239],[-83.260975,42.443345],[-83.258782,42.443403],[-83.256331,42.443468],[-83.250289,42.443629],[-83.249103,42.44366],[-83.24673,42.443719],[-83.244203,42.44379],[-83.241374,42.443865],[-83.239339,42.443918],[-83.237295,42.443963],[-83.23324,42.444052],[-83.225964,42.444211],[-83.225544,42.44422],[-83.222435,42.444288],[-83.220068,42.44434],[-83.219726,42.444348],[-83.219554,42.444351],[-83.219206,42.444359],[-83.216663,42.444414],[-83.213708,42.444493],[-83.211299,42.444541],[-83.210766,42.444555],[-83.21068,42.444556],[-83.207733,42.444639],[-83.205818,42.444691],[-83.20482,42.444717],[-83.203931,42.444738],[-83.203554,42.444747],[-83.203302,42.444753],[-83.202983,42.444759],[-83.202572,42.444769],[-83.201594,42.44479],[-83.200885,42.44481],[-83.200445,42.44484],[-83.19985,42.44489],[-83.198214,42.444981],[-83.196559,42.445046],[-83.193134,42.445097],[-83.19072,42.445147],[-83.185793,42.445245],[-83.183068,42.445309],[-83.180927,42.445343],[-83.178603,42.445392],[-83.175534,42.445454],[-83.173418,42.445498],[-83.171184,42.445546],[-83.16882,42.445609],[-83.166832,42.445685],[-83.165786,42.445708],[-83.16366,42.445754],[-83.161432,42.445795],[-83.159144,42.445853],[-83.158634,42.445857],[-83.15817,42.445868],[-83.156498,42.445905],[-83.155938,42.445918],[-83.155342,42.445931],[-83.153509,42.445972],[-83.152085,42.446004],[-83.151903,42.446008],[-83.149237,42.446068],[-83.146912,42.44612],[-83.145744,42.446146],[-83.144802,42.446167],[-83.141981,42.44623],[-83.139823,42.446275],[-83.139197,42.446289],[-83.138787,42.446297],[-83.138007,42.446314],[-83.136484,42.446346],[-83.133039,42.446396],[-83.127657,42.446491],[-83.125249,42.446563],[-83.124994,42.446568],[-83.124819,42.44657],[-83.124629,42.446579],[-83.122573,42.446638],[-83.122158,42.446646],[-83.120502,42.44667],[-83.117413,42.44672],[-83.112674,42.446795],[-83.112599,42.446798],[-83.11229,42.446809],[-83.111678,42.446829],[-83.109572,42.446957],[-83.109396,42.446972],[-83.105316,42.447082],[-83.102796,42.44714],[-83.101659,42.447101],[-83.100229,42.447012],[-83.099555,42.446965],[-83.09902,42.446917],[-83.097361,42.44682],[-83.0959,42.44684],[-83.09524,42.446852],[-83.094849,42.446862],[-83.094617,42.446866],[-83.094276,42.446874],[-83.093027,42.446897],[-83.09019,42.446997],[-83.086256,42.447103],[-83.085827,42.447113],[-83.084518,42.447137],[-83.083546,42.447151],[-83.083307,42.447021],[-83.083113,42.447168],[-83.080857,42.447217],[-83.076576,42.447251],[-83.073541,42.447303],[-83.072938,42.447306],[-83.069963,42.447349],[-83.066843,42.44738],[-83.065699,42.447389],[-83.06381,42.447412],[-83.061914,42.44746],[-83.059786,42.447508],[-83.053985,42.447663],[-83.053333,42.447673],[-83.052188,42.447694],[-83.05181,42.447701],[-83.048561,42.447792],[-83.046177,42.447844],[-83.044214,42.447913],[-83.043885,42.44792],[-83.042056,42.447963],[-83.039345,42.448038],[-83.036971,42.448082],[-83.036618,42.448089],[-83.034443,42.448084],[-83.032528,42.448132],[-83.032068,42.448135],[-83.028326,42.448211],[-83.027412,42.448246],[-83.026754,42.448254],[-83.025875,42.448282],[-83.024672,42.44831],[-83.023531,42.448339],[-83.022477,42.448371],[-83.021798,42.448379],[-83.02141,42.448388],[-83.017461,42.448514],[-83.016833,42.44853],[-83.014966,42.44857],[-83.012593,42.448652],[-83.009268,42.448766],[-83.007416,42.448877],[-83.006946,42.448892],[-83.006106,42.448918],[-83.005301,42.448951],[-83.004848,42.448964],[-83.002518,42.449042],[-83.000534,42.449112],[-82.997791,42.449184],[-82.995361,42.449238],[-82.992879,42.449261],[-82.992207,42.449277],[-82.990471,42.449318],[-82.987816,42.449376],[-82.985583,42.44943],[-82.98338,42.449487],[-82.980691,42.449549],[-82.977768,42.449624],[-82.97576,42.449676],[-82.975184,42.44969],[-82.970842,42.449808],[-82.969904,42.449871],[-82.967733,42.45],[-82.964554,42.450062],[-82.963595,42.450076],[-82.961031,42.450119],[-82.958564,42.450162],[-82.957633,42.450182],[-82.956528,42.450205],[-82.956129,42.450213],[-82.955407,42.450231],[-82.952663,42.450274],[-82.951243,42.4503],[-82.945929,42.450375],[-82.943767,42.450345],[-82.942927,42.450338],[-82.941057,42.450371],[-82.940533,42.450373],[-82.940662,42.450224],[-82.941818,42.449037],[-82.941906,42.448944],[-82.942221,42.448608],[-82.942511,42.44828],[-82.942597,42.44817],[-82.942983,42.447657],[-82.943128,42.447468],[-82.943143,42.44745],[-82.943299,42.447241],[-82.943693,42.446714],[-82.943965,42.446351],[-82.944685,42.445397],[-82.945274,42.444607],[-82.945745,42.443982],[-82.946048,42.443576],[-82.946275,42.443272],[-82.946575,42.442869],[-82.947044,42.442245],[-82.947332,42.441861],[-82.947402,42.441756],[-82.947449,42.44168],[-82.947761,42.441266],[-82.948078,42.440845],[-82.948478,42.440311],[-82.948775,42.439938],[-82.948888,42.439798],[-82.949109,42.439507],[-82.949468,42.439029],[-82.949672,42.438757],[-82.950186,42.43807],[-82.950707,42.437382],[-82.950769,42.4373],[-82.95082,42.437232],[-82.951229,42.436691],[-82.951524,42.436297],[-82.950925,42.436273],[-82.951278,42.435809],[-82.9508,42.435613],[-82.949815,42.435208],[-82.947775,42.434374],[-82.945656,42.433503],[-82.943533,42.432637],[-82.940337,42.431329],[-82.937303,42.43009],[-82.934263,42.428846],[-82.932116,42.427968],[-82.929911,42.427065],[-82.927928,42.426254],[-82.927798,42.426183],[-82.927576,42.426063],[-82.927416,42.425976],[-82.927227,42.425873],[-82.927071,42.425789],[-82.926533,42.425567],[-82.925619,42.425188],[-82.924673,42.424794],[-82.923734,42.424406],[-82.92279,42.424017],[-82.921816,42.423613],[-82.920858,42.423218],[-82.919808,42.422784],[-82.918562,42.422276],[-82.917912,42.422013],[-82.91734,42.421782],[-82.916249,42.421349]],[[-83.073762,42.398721],[-83.073634,42.398565],[-83.073061,42.397866],[-83.072722,42.397452],[-83.072671,42.39739],[-83.071183,42.395573],[-83.069366,42.393354],[-83.069221,42.393167],[-83.069084,42.39299],[-83.06891,42.392765],[-83.068771,42.392585],[-83.067465,42.390898],[-83.066671,42.389873],[-83.066552,42.389707],[-83.066367,42.389767],[-83.066312,42.389785],[-83.064161,42.39059],[-83.063973,42.390654],[-83.062408,42.391244],[-83.061858,42.39041],[-83.06161,42.390048],[-83.060902,42.389005],[-83.060501,42.388414],[-83.059835,42.387432],[-83.059664,42.38718],[-83.059189,42.386486],[-83.057912,42.384618],[-83.057851,42.384523],[-83.05766,42.384249],[-83.056367,42.382318],[-83.056073,42.381902],[-83.055862,42.381614],[-83.055752,42.381454],[-83.055735,42.381399],[-83.055734,42.381363],[-83.055663,42.381239],[-83.055563,42.381084],[-83.054929,42.380067],[-83.054832,42.379881],[-83.054668,42.379596],[-83.054281,42.379736],[-83.051858,42.380613],[-83.047951,42.382027],[-83.045115,42.383053],[-83.04253,42.383989],[-83.040597,42.384688],[-83.040411,42.384755],[-83.041155,42.385801],[-83.041788,42.386688],[-83.042178,42.387237],[-83.04244,42.387604],[-83.042534,42.387736],[-83.042635,42.387878],[-83.043314,42.38883],[-83.043773,42.389475],[-83.044277,42.390182],[-83.043124,42.390199],[-83.042223,42.390215],[-83.042225,42.390571],[-83.042242,42.391283],[-83.042257,42.392042],[-83.042269,42.392595],[-83.042296,42.393127],[-83.042293,42.393859],[-83.042302,42.393923],[-83.042315,42.39424],[-83.042329,42.394632],[-83.04233,42.394816],[-83.042331,42.395099],[-83.042338,42.395193],[-83.042344,42.39554],[-83.042349,42.395929],[-83.042369,42.396665],[-83.042389,42.397428],[-83.04239,42.397521],[-83.042391,42.39764],[-83.042397,42.398298],[-83.042401,42.398767],[-83.042406,42.399274],[-83.042415,42.400187],[-83.042418,42.400504],[-83.042423,42.401103],[-83.042427,42.401453],[-83.042432,42.402056],[-83.042448,42.403679],[-83.042455,42.404444],[-83.043843,42.404444],[-83.044911,42.404449],[-83.047178,42.40446],[-83.049851,42.40443],[-83.050116,42.404429],[-83.052555,42.404428],[-83.053943,42.40444],[-83.05414,42.404734],[-83.054583,42.405395],[-83.055023,42.406051],[-83.055495,42.406754],[-83.055563,42.406856],[-83.055952,42.407435],[-83.056394,42.408094],[-83.056838,42.408753],[-83.056992,42.408982],[-83.057459,42.40881],[-83.057909,42.408644],[-83.058388,42.408468],[-83.058835,42.408304],[-83.059718,42.407982],[-83.060254,42.407785],[-83.060616,42.407651],[-83.061142,42.407463],[-83.061494,42.407329],[-83.062006,42.407141],[-83.062369,42.407008],[-83.062848,42.406834],[-83.063246,42.406688],[-83.063694,42.406523],[-83.064205,42.406335],[-83.064681,42.406159],[-83.064781,42.406123],[-83.065785,42.405754],[-83.066677,42.405426],[-83.067547,42.405105],[-83.068706,42.404678],[-83.069139,42.404519],[-83.069629,42.40434],[-83.070114,42.404162],[-83.070591,42.403986],[-83.071093,42.4038],[-83.071572,42.403625],[-83.072058,42.403447],[-83.072397,42.403296],[-83.072664,42.403178],[-83.073036,42.403013],[-83.073377,42.402909],[-83.073936,42.402706],[-83.074496,42.402498],[-83.075089,42.402283],[-83.076098,42.401925],[-83.076216,42.401883],[-83.076321,42.401845],[-83.080929,42.407439],[-83.081073,42.407618],[-83.08118,42.407751],[-83.081432,42.408065],[-83.081508,42.408159],[-83.081637,42.408309],[-83.081756,42.408466],[-83.081799,42.408522],[-83.082314,42.409164],[-83.082469,42.409347],[-83.08564,42.413311],[-83.086955,42.414949],[-83.089437,42.418042],[-83.089474,42.41809],[-83.091386,42.418065],[-83.09236,42.418053],[-83.092938,42.418046],[-83.093348,42.418041],[-83.094198,42.41803],[-83.094749,42.418024],[-83.095332,42.418024],[-83.096323,42.418009],[-83.097318,42.417975],[-83.097563,42.417965],[-83.098336,42.417939],[-83.099616,42.417893],[-83.100999,42.417848],[-83.101733,42.417829],[-83.10291,42.417804],[-83.104468,42.417764],[-83.10491,42.417758],[-83.105214,42.41775],[-83.105459,42.417748],[-83.107873,42.417724],[-83.109175,42.417705],[-83.109529,42.417699],[-83.110196,42.417687],[-83.110714,42.417678],[-83.112259,42.417651],[-83.112574,42.417645],[-83.11358,42.417628],[-83.11551,42.417598],[-83.11564,42.417595],[-83.11636,42.41758],[-83.116774,42.417572],[-83.118853,42.417539],[-83.120721,42.417509],[-83.121852,42.417482],[-83.121311,42.416688],[-83.120776,42.415903],[-83.120231,42.415104],[-83.119686,42.414305],[-83.119145,42.413512],[-83.118605,42.41272],[-83.118081,42.411927],[-83.117582,42.411172],[-83.117416,42.410927],[-83.117066,42.410392],[-83.116407,42.409395],[-83.115631,42.408221],[-83.113932,42.405796],[-83.113223,42.404653],[-83.113207,42.404638],[-83.113175,42.40459],[-83.113113,42.404494],[-83.112077,42.403122],[-83.11201,42.403032],[-83.111493,42.402288],[-83.111039,42.401636],[-83.110812,42.401298],[-83.110592,42.400971],[-83.110371,42.400645],[-83.110131,42.400292],[-83.109893,42.399941],[-83.109757,42.399741],[-83.109658,42.399598],[-83.109428,42.399259],[-83.109287,42.39905],[-83.109171,42.398881],[-83.109074,42.398738],[-83.108969,42.398585],[-83.108833,42.398387],[-83.108807,42.398349],[-83.108627,42.398086],[-83.108483,42.397876],[-83.108472,42.397849],[-83.107883,42.396969],[-83.107055,42.395741],[-83.106655,42.395051],[-83.105694,42.393363],[-83.105443,42.393022],[-83.105166,42.392617],[-83.104888,42.392213],[-83.104687,42.391921],[-83.1046,42.391813],[-83.104495,42.391683],[-83.10431,42.391416],[-83.104028,42.391008],[-83.103745,42.39061],[-83.103461,42.390206],[-83.103179,42.389805],[-83.102926,42.389456],[-83.102292,42.388608],[-83.102053,42.388259],[-83.102006,42.388276],[-83.100509,42.388815],[-83.097648,42.389844],[-83.094599,42.39094],[-83.091693,42.391985],[-83.088586,42.393103],[-83.085578,42.394228],[-83.082611,42.395356],[-83.079891,42.396391],[-83.079649,42.396483],[-83.079054,42.396709],[-83.07816,42.397049],[-83.077213,42.39741],[-83.076089,42.397838],[-83.075121,42.398204],[-83.074464,42.398454],[-83.073762,42.398721]]]},"properties":{"FID":1,"acres":91471.28067,"cnty_code":"163","fipscode":"22000","fipsnum":22000,"label":"City of Detroit","layout":"landscape","link":"16322000","name":"Detroit","objectid":4,"peninsula":"lower","shape_area":3986357034.2,"shape_leng":432048.076882,"sqkm":370.1751258,"sqmiles":142.924759,"type":"City","ver":"14a","Shape__Area":679280890.80859375,"Shape__Length":178261.68088253692,"GlobalID":"5afa35e2-10c4-4b26-ad6e-a45e11e4d2d4","CreationDate":1568056869601,"Creator":"sheltont_detroitmi","EditDate":1684242101226,"Editor":"schultzt_detroitmi"}}]}